0 IUS R/B(1)
1 19549U 88091C   13282.31245275  .00000805  00000-0  62681-3 0  3992
2 19549 026.5953 271.2041 6956832 166.4620 355.0067 02.66966462228006
0 IUS R/B(1)
1 19549U 88091C   13282.95981616  .00000839  00000-0  59295-3 0  4005
2 19549 026.5938 270.9188 6956930 166.9416 257.1677 02.66967530228011
0 IUS R/B(1)
1 19549U 88091C   13285.30914515  .00001223  00000-0  58343-3 0  4013
2 19549 026.5888 269.8781 6957283 168.6880 355.0683 02.66971658228085
0 IUS R/B(1)
1 19549U 88091C   13288.30586822  .00001787  00000-0  85013-3 0  4022
2 19549 026.5829 268.5491 6957802 170.9151 355.2346 02.66979520228161
0 IUS R/B(1)
1 19549U 88091C   13291.30222424  .00001389  00000-0  84549-3 0  4033
2 19549 026.5765 267.2184 6958379 173.1428 355.1408 02.66988299228247
0 IUS R/B(1)
1 19549U 88091C   13293.17111076  .00001403  00000-0  86661-3 0  4045
2 19549 026.5726 266.3812 6958990 174.5482 351.4423 02.66994086228298
0 IUS R/B(1)
1 19549U 88091C   13296.16466306  .00001489  00000-0  84041-3 0  4051
2 19549 026.5651 265.0527 6959532 176.7711 348.8085 02.67006428228374
